{
  "type": "FeatureCollection",
  "features": [
    {
      "type": "Feature",
      "properties": {},
      "geometry": {
        "type": "Polygon",
        "coordinates": [
          [
            [
              -4.7509,
              48.494312
            ],
            [
              -4.725494,
              48.487942
            ],
            [
              -4.706268,
              48.483846
            ],
            [
              -4.678802,
              48.477929
            ],
            [
              -4.659576,
              48.475197
            ],
            [
              -4.634857,
              48.483846
            ],
            [
              -4.613571,
              48.492947
            ],
            [
              -4.592285,
              48.499318
            ],
            [
              -4.577866,
              48.504777
            ],
            [
              -4.565506,
              48.505687
            ],
            [
              -4.549713,
              48.512966
            ],
            [
              -4.532547,
              48.504777
            ],
            [
              -4.520187,
              48.491582
            ],
            [
              -4.505081,
              48.496588
            ],
            [
              -4.494095,
              48.507962
            ],
            [
              -4.496841,
              48.527064
            ],
            [
              -4.502335,
              48.543433
            ],
            [
              -4.502335,
              48.554796
            ],
            [
              -4.505081,
              48.56434
            ],
            [
              -4.527054,
              48.566612
            ],
            [
              -4.55864,
              48.568883
            ],
            [
              -4.571686,
              48.574336
            ],
            [
              -4.584732,
              48.582513
            ],
            [
              -4.600525,
              48.58433
            ],
            [
              -4.624557,
              48.58433
            ],
            [
              -4.637604,
              48.582967
            ],
            [
              -4.637604,
              48.592959
            ],
            [
              -4.652023,
              48.597046
            ],
            [
              -4.66507,
              48.593867
            ],
            [
              -4.674683,
              48.601587
            ],
            [
              -4.682922,
              48.587963
            ],
            [
              -4.693222,
              48.578424
            ],
            [
              -4.704208,
              48.570701
            ],
            [
              -4.720688,
              48.564794
            ],
            [
              -4.737167,
              48.555705
            ],
            [
              -4.750214,
              48.547978
            ],
            [
              -4.764633,
              48.54116
            ],
            [
              -4.770126,
              48.534795
            ],
            [
              -4.766693,
              48.527064
            ],
            [
              -4.761887,
              48.51433
            ],
            [
              -4.761887,
              48.505687
            ],
            [
              -4.7509,
              48.494312
            ]
          ]
        ]
      }
    }
  ]
}